IRIDIUM 171             
1 43929U 19002H   23276.09956805  .00000614  00000+0  21211-3 0  9991
2 43929  86.3989  46.7040 0002142  97.1003 263.0437 14.34220543247334
IRIDIUM 170             
1 43930U 19002J   23277.40997967  .00002443  00000+0  38345-3 0  9991
2 43930  86.6113  46.0144 0002204  89.6494 270.4975 14.72256849254073
IRIDIUM 167             
1 43931U 19002K   23276.86068571  .00000603  00000+0  20826-3 0  9992
2 43931  86.3982  46.2029 0002074  97.3149 262.8282 14.34218584247448
IRIDIUM 181             
1 56726U 23068S   23277.42793864  .00000285  00000+0  78344-4 0  9993
2 56726  86.8573  87.2698 0001017 111.9704 248.1606 14.43580117 20099
IRIDIUM 177             
1 56727U 23068T   23276.52779674  .00001047  00000+0  13417-3 0  9993
2 56727  86.1936  77.6778 0002476  96.6854 263.4649 14.80250264 20267
IRIDIUM 174             
1 56728U 23068U   23276.72516623  .00001048  00000+0  13438-3 0  9993
2 56728  86.1942  77.6668 0002375  86.8705 273.2788 14.80250471 20293
IRIDIUM 178             
1 56729U 23068V   23276.85477715  .00001023  00000+0  13113-3 0  9999
2 56729  86.5733  82.8783 0002618  89.1304 271.0218 14.80240205 20314
IRIDIUM 179             
1 56730U 23068W   23276.84939408  .00001008  00000+0  12924-3 0  9994
2 56730  86.6742  83.7753 0002614  92.3953 267.7567 14.80240044 20316
